[{"CCSDS_OMM_VERS":"3.0","COMMENT":"GENERATED VIA SPACE-TRACK.ORG API","CREATION_DATE":"2026-05-16T10:38:26","ORIGINATOR":"18 SPCS","OBJECT_NAME":"THOR ABLESTAR DEB","OBJECT_ID":"1961-015FU","CENTER_NAME":"EARTH","REF_FRAME":"TEME","TIME_SYSTEM":"UTC","MEAN_ELEMENT_THEORY":"SGP4","EPOCH":"2026-05-16T04:18:27.218016","MEAN_MOTION":"13.99427651","ECCENTRICITY":"0.00807378","INCLINATION":"66.8806","RA_OF_ASC_NODE":"46.2936","ARG_OF_PERICENTER":"196.7887","MEAN_ANOMALY":"163.0523","EPHEMERIS_TYPE":"0","CLASSIFICATION_TYPE":"U","NORAD_CAT_ID":"530","ELEMENT_SET_NO":"999","REV_AT_EPOCH":"30314","BSTAR":"0.00008920832600","MEAN_MOTION_DOT":"0.00000056","MEAN_MOTION_DDOT":"0.0000000000000","SEMIMAJOR_AXIS":"7273.915","PERIOD":"102.899","APOAPSIS":"954.508","PERIAPSIS":"837.052","OBJECT_TYPE":"DEBRIS","RCS_SIZE":"SMALL","COUNTRY_CODE":"US","LAUNCH_DATE":"1961-06-29","SITE":"AFETR","DECAY_DATE":null,"FILE":"5196540","GP_ID":"323423996","TLE_LINE0":"0 THOR ABLESTAR DEB","TLE_LINE1":"1 00530U 61015FU  26136.17948169  .00000056  00000-0  89208-4 0  9996","TLE_LINE2":"2 00530  66.8806  46.2936 0080738 196.7887 163.0523 13.99427651303144"},{"CCSDS_OMM_VERS":"3.0","COMMENT":"GENERATED VIA SPACE-TRACK.ORG API","CREATION_DATE":"2026-05-16T17:43:08","ORIGINATOR":"18 SPCS","OBJECT_NAME":"THOR ABLESTAR DEB","OBJECT_ID":"1961-015FW","CENTER_NAME":"EARTH","REF_FRAME":"TEME","TIME_SYSTEM":"UTC","MEAN_ELEMENT_THEORY":"SGP4","EPOCH":"2026-05-16T14:01:56.555904","MEAN_MOTION":"13.65071499","ECCENTRICITY":"0.01782669","INCLINATION":"67.2251","RA_OF_ASC_NODE":"190.9943","ARG_OF_PERICENTER":"313.9201","MEAN_ANOMALY":"197.0526","EPHEMERIS_TYPE":"0","CLASSIFICATION_TYPE":"U","NORAD_CAT_ID":"537","ELEMENT_SET_NO":"999","REV_AT_EPOCH":"1083","BSTAR":"0.00044616559000","MEAN_MOTION_DOT":"0.00000334","MEAN_MOTION_DDOT":"0.0000000000000","SEMIMAJOR_AXIS":"7395.455","PERIOD":"105.489","APOAPSIS":"1149.157","PERIAPSIS":"885.484","OBJECT_TYPE":"DEBRIS","RCS_SIZE":"SMALL","COUNTRY_CODE":"US","LAUNCH_DATE":"1961-06-29","SITE":"AFETR","DECAY_DATE":null,"FILE":"5196581","GP_ID":"323457697","TLE_LINE0":"0 THOR ABLESTAR DEB","TLE_LINE1":"1 00537U 61015FW  26136.58468236  .00000334  00000-0  44617-3 0  9993","TLE_LINE2":"2 00537  67.2251 190.9943 0178267 313.9201 197.0526 13.65071499 10832"},{"CCSDS_OMM_VERS":"3.0","COMMENT":"GENERATED VIA SPACE-TRACK.ORG API","CREATION_DATE":"2026-05-16T10:38:26","ORIGINATOR":"18 SPCS","OBJECT_NAME":"THOR ABLESTAR DEB","OBJECT_ID":"1961-015FX","CENTER_NAME":"EARTH","REF_FRAME":"TEME","TIME_SYSTEM":"UTC","MEAN_ELEMENT_THEORY":"SGP4","EPOCH":"2026-05-16T02:26:54.669696","MEAN_MOTION":"14.65296930","ECCENTRICITY":"0.00116034","INCLINATION":"67.8047","RA_OF_ASC_NODE":"46.3737","ARG_OF_PERICENTER":"275.1519","MEAN_ANOMALY":"84.8281","EPHEMERIS_TYPE":"0","CLASSIFICATION_TYPE":"U","NORAD_CAT_ID":"538","ELEMENT_SET_NO":"999","REV_AT_EPOCH":"35890","BSTAR":"0.00057409938000","MEAN_MOTION_DOT":"0.00003014","MEAN_MOTION_DDOT":"0.0000000000000","SEMIMAJOR_AXIS":"7054.259","PERIOD":"98.274","APOAPSIS":"684.310","PERIAPSIS":"667.939","OBJECT_TYPE":"DEBRIS","RCS_SIZE":"SMALL","COUNTRY_CODE":"US","LAUNCH_DATE":"1961-06-29","SITE":"AFETR","DECAY_DATE":null,"FILE":"5196540","GP_ID":"323423997","TLE_LINE0":"0 THOR ABLESTAR DEB","TLE_LINE1":"1 00538U 61015FX  26136.10202164  .00003014  00000-0  57410-3 0  9991","TLE_LINE2":"2 00538  67.8047  46.3737 0011603 275.1519  84.8281 14.65296930358902"},{"CCSDS_OMM_VERS":"3.0","COMMENT":"GENERATED VIA SPACE-TRACK.ORG API","CREATION_DATE":"2026-05-16T17:43:08","ORIGINATOR":"18 SPCS","OBJECT_NAME":"THOR ABLESTAR DEB","OBJECT_ID":"1961-015GA","CENTER_NAME":"EARTH","REF_FRAME":"TEME","TIME_SYSTEM":"UTC","MEAN_ELEMENT_THEORY":"SGP4","EPOCH":"2026-05-16T08:41:54.436704","MEAN_MOTION":"13.86370759","ECCENTRICITY":"0.00826099","INCLINATION":"67.2163","RA_OF_ASC_NODE":"119.4326","ARG_OF_PERICENTER":"297.3094","MEAN_ANOMALY":"61.9591","EPHEMERIS_TYPE":"0","CLASSIFICATION_TYPE":"U","NORAD_CAT_ID":"541","ELEMENT_SET_NO":"999","REV_AT_EPOCH":"26791","BSTAR":"0.00015849925000","MEAN_MOTION_DOT":"0.00000116","MEAN_MOTION_DDOT":"0.0000000000000","SEMIMAJOR_AXIS":"7319.514","PERIOD":"103.868","APOAPSIS":"1001.845","PERIAPSIS":"880.913","OBJECT_TYPE":"DEBRIS","RCS_SIZE":"SMALL","COUNTRY_CODE":"US","LAUNCH_DATE":"1961-06-29","SITE":"AFETR","DECAY_DATE":null,"FILE":"5196581","GP_ID":"323457698","TLE_LINE0":"0 THOR ABLESTAR DEB","TLE_LINE1":"1 00541U 61015GA  26136.36243561  .00000116  00000-0  15850-3 0  9991","TLE_LINE2":"2 00541  67.2163 119.4326 0082610 297.3094  61.9591 13.86370759267919"},{"CCSDS_OMM_VERS":"3.0","COMMENT":"GENERATED VIA SPACE-TRACK.ORG API","CREATION_DATE":"2026-05-16T10:38:26","ORIGINATOR":"18 SPCS","OBJECT_NAME":"THOR ABLESTAR DEB","OBJECT_ID":"1961-015GC","CENTER_NAME":"EARTH","REF_FRAME":"TEME","TIME_SYSTEM":"UTC","MEAN_ELEMENT_THEORY":"SGP4","EPOCH":"2026-05-16T02:38:16.922112","MEAN_MOTION":"13.69224568","ECCENTRICITY":"0.00728951","INCLINATION":"67.0331","RA_OF_ASC_NODE":"19.1914","ARG_OF_PERICENTER":"228.6284","MEAN_ANOMALY":"282.4297","EPHEMERIS_TYPE":"0","CLASSIFICATION_TYPE":"U","NORAD_CAT_ID":"543","ELEMENT_SET_NO":"999","REV_AT_EPOCH":"23230","BSTAR":"0.00017621669000","MEAN_MOTION_DOT":"0.00000085","MEAN_MOTION_DDOT":"0.0000000000000","SEMIMAJOR_AXIS":"7380.493","PERIOD":"105.169","APOAPSIS":"1056.158","PERIAPSIS":"948.558","OBJECT_TYPE":"DEBRIS","RCS_SIZE":"SMALL","COUNTRY_CODE":"US","LAUNCH_DATE":"1961-06-29","SITE":"AFETR","DECAY_DATE":null,"FILE":"5196540","GP_ID":"323423998","TLE_LINE0":"0 THOR ABLESTAR DEB","TLE_LINE1":"1 00543U 61015GC  26136.10991808  .00000085  00000-0  17622-3 0  9993","TLE_LINE2":"2 00543  67.0331  19.1914 0072895 228.6284 282.4297 13.69224568232302"},{"CCSDS_OMM_VERS":"3.0","COMMENT":"GENERATED VIA SPACE-TRACK.ORG API","CREATION_DATE":"2026-05-16T17:43:08","ORIGINATOR":"18 SPCS","OBJECT_NAME":"THOR ABLESTAR DEB","OBJECT_ID":"1961-015GD","CENTER_NAME":"EARTH","REF_FRAME":"TEME","TIME_SYSTEM":"UTC","MEAN_ELEMENT_THEORY":"SGP4","EPOCH":"2026-05-16T10:14:16.065312","MEAN_MOTION":"13.56195324","ECCENTRICITY":"0.01920771","INCLINATION":"66.8741","RA_OF_ASC_NODE":"292.8301","ARG_OF_PERICENTER":"285.0987","MEAN_ANOMALY":"102.5099","EPHEMERIS_TYPE":"0","CLASSIFICATION_TYPE":"U","NORAD_CAT_ID":"544","ELEMENT_SET_NO":"999","REV_AT_EPOCH":"19730","BSTAR":"0.00022716499000","MEAN_MOTION_DOT":"0.00000110","MEAN_MOTION_DDOT":"0.0000000000000","SEMIMAJOR_AXIS":"7427.688","PERIOD":"106.179","APOAPSIS":"1192.222","PERIAPSIS":"906.885","OBJECT_TYPE":"DEBRIS","RCS_SIZE":"SMALL","COUNTRY_CODE":"US","LAUNCH_DATE":"1961-06-29","SITE":"AFETR","DECAY_DATE":null,"FILE":"5196581","GP_ID":"323457699","TLE_LINE0":"0 THOR ABLESTAR DEB","TLE_LINE1":"1 00544U 61015GD  26136.42657483  .00000110  00000-0  22716-3 0  9996","TLE_LINE2":"2 00544  66.8741 292.8301 0192077 285.0987 102.5099 13.56195324197302"},{"CCSDS_OMM_VERS":"3.0","COMMENT":"GENERATED VIA SPACE-TRACK.ORG API","CREATION_DATE":"2026-05-16T17:43:08","ORIGINATOR":"18 SPCS","OBJECT_NAME":"THOR ABLESTAR DEB","OBJECT_ID":"1961-015GE","CENTER_NAME":"EARTH","REF_FRAME":"TEME","TIME_SYSTEM":"UTC","MEAN_ELEMENT_THEORY":"SGP4","EPOCH":"2026-05-16T13:54:16.297056","MEAN_MOTION":"13.71074617","ECCENTRICITY":"0.01524898","INCLINATION":"67.2328","RA_OF_ASC_NODE":"347.9630","ARG_OF_PERICENTER":"70.5806","MEAN_ANOMALY":"291.1674","EPHEMERIS_TYPE":"0","CLASSIFICATION_TYPE":"U","NORAD_CAT_ID":"545","ELEMENT_SET_NO":"999","REV_AT_EPOCH":"22595","BSTAR":"0.00026666799000","MEAN_MOTION_DOT":"0.00000190","MEAN_MOTION_DDOT":"0.0000000000000","SEMIMAJOR_AXIS":"7373.853","PERIOD":"105.027","APOAPSIS":"1108.161","PERIAPSIS":"883.274","OBJECT_TYPE":"DEBRIS","RCS_SIZE":"SMALL","COUNTRY_CODE":"US","LAUNCH_DATE":"1961-06-29","SITE":"AFETR","DECAY_DATE":null,"FILE":"5196581","GP_ID":"323457199","TLE_LINE0":"0 THOR ABLESTAR DEB","TLE_LINE1":"1 00545U 61015GE  26136.57935529  .00000190  00000-0  26667-3 0  9990","TLE_LINE2":"2 00545  67.2328 347.9630 0152490  70.5806 291.1674 13.71074617225953"},{"CCSDS_OMM_VERS":"3.0","COMMENT":"GENERATED VIA SPACE-TRACK.ORG API","CREATION_DATE":"2026-05-16T17:43:08","ORIGINATOR":"18 SPCS","OBJECT_NAME":"THOR ABLESTAR DEB","OBJECT_ID":"1961-015GH","CENTER_NAME":"EARTH","REF_FRAME":"TEME","TIME_SYSTEM":"UTC","MEAN_ELEMENT_THEORY":"SGP4","EPOCH":"2026-05-16T08:23:57.389856","MEAN_MOTION":"14.75930738","ECCENTRICITY":"0.00913696","INCLINATION":"66.6697","RA_OF_ASC_NODE":"36.2429","ARG_OF_PERICENTER":"143.7261","MEAN_ANOMALY":"217.0102","EPHEMERIS_TYPE":"0","CLASSIFICATION_TYPE":"U","NORAD_CAT_ID":"548","ELEMENT_SET_NO":"999","REV_AT_EPOCH":"39912","BSTAR":"0.00017502823000","MEAN_MOTION_DOT":"0.00001165","MEAN_MOTION_DDOT":"0.0000000000000","SEMIMAJOR_AXIS":"7020.335","PERIOD":"97.566","APOAPSIS":"706.345","PERIAPSIS":"578.056","OBJECT_TYPE":"DEBRIS","RCS_SIZE":"SMALL","COUNTRY_CODE":"US","LAUNCH_DATE":"1961-06-29","SITE":"AFETR","DECAY_DATE":null,"FILE":"5196581","GP_ID":"323457700","TLE_LINE0":"0 THOR ABLESTAR DEB","TLE_LINE1":"1 00548U 61015GH  26136.34996979  .00001165  00000-0  17503-3 0  9996","TLE_LINE2":"2 00548  66.6697  36.2429 0091370 143.7261 217.0102 14.75930738399123"}]